ISS (NAUKA)             
1 49044U 21066A   25336.09225230  .00009217  00000+0  17381-3 0  9999
2 49044  51.6314 195.1903 0003638 193.8265 166.2625 15.49237019230447
CSS (WENTIAN)           
1 53239U 22085A   25336.59219011  .00027659  00000+0  35376-3 0  9991
2 53239  41.4674  78.2835 0010229 314.5610  45.4392 15.58538929173842
CSS (MENGTIAN)          
1 54216U 22143A   25336.59219011  .00027659  00000+0  35376-3 0  9992
2 54216  41.4674  78.2835 0010229 314.5610  45.4392 15.58538929158649
SOYUZ-MS 27             
1 63520U 25072A   25336.09225230  .00009217  00000+0  17381-3 0  9995
2 63520  51.6314 195.1903 0003638 193.8265 166.2625 15.49237019 20203
SHENZHOU-20 (SZ-20)     
1 63632U 25082A   25336.59219011  .00027659  00000+0  35376-3 0  9999
2 63632  41.4674  78.2835 0010229 314.5610  45.4392 15.58538929255302
PROGRESS-MS 31          
1 64751U 25146A   25336.09225230  .00009217  00000+0  17381-3 0  9994
2 64751  51.6314 195.1903 0003638 193.8265 166.2625 15.49237019  6754
TIANZHOU-9              
1 64786U 25149A   25336.59219011  .00027659  00000+0  35376-3 0  9994
2 64786  41.4674  78.2835 0010229 314.5610  45.4392 15.58538929255303
CREW DRAGON 11          
1 65077U 25166A   25336.09225230  .00009217  00000+0  17381-3 0  9998
2 65077  51.6314 195.1903 0003638 193.8265 166.2625 15.49237019  2145
DRAGON CRS-33           
1 65304U 25186A   25336.09225230  .00009217  00000+0  17381-3 0  9993
2 65304  51.6314 195.1903 0003638 193.8265 166.2625 15.49237019   113
