CCSDS_OMM_VERS = 2.0
CREATION_DATE  = 
ORIGINATOR     = 

OBJECT_NAME    = ISS (NAUKA)
OBJECT_ID      = 2021-066A
CENTER_NAME    = EARTH
REF_FRAME      = TEME
TIME_SYSTEM    = UTC
MEAN_ELEMENT_THEORY = SGP/SGP4

EPOCH          = 2025-12-02T02:12:50.598720
MEAN_MOTION    = 15.49237019
ECCENTRICITY   = .00036389
INCLINATION    = 51.6314
RA_OF_ASC_NODE = 195.1903
ARG_OF_PERICENTER = 193.8265
MEAN_ANOMALY   = 166.2625

EPHEMERIS_TYPE = 0
CLASSIFICATION_TYPE = U
NORAD_CAT_ID   = 49044
ELEMENT_SET_NO = 999
REV_AT_EPOCH   = 23044
BSTAR          = .17380747E-3
MEAN_MOTION_DOT = .9217E-4
MEAN_MOTION_DDOT = 0

CCSDS_OMM_VERS = 2.0
CREATION_DATE  = 
ORIGINATOR     = 

OBJECT_NAME    = CSS (WENTIAN)
OBJECT_ID      = 2022-085A
CENTER_NAME    = EARTH
REF_FRAME      = TEME
TIME_SYSTEM    = UTC
MEAN_ELEMENT_THEORY = SGP/SGP4

EPOCH          = 2025-12-02T14:12:45.225504
MEAN_MOTION    = 15.58538929
ECCENTRICITY   = .00102296
INCLINATION    = 41.4674
RA_OF_ASC_NODE = 78.2835
ARG_OF_PERICENTER = 314.5610
MEAN_ANOMALY   = 45.4392

EPHEMERIS_TYPE = 0
CLASSIFICATION_TYPE = U
NORAD_CAT_ID   = 53239
ELEMENT_SET_NO = 999
REV_AT_EPOCH   = 17384
BSTAR          = .35376094E-3
MEAN_MOTION_DOT = .27659E-3
MEAN_MOTION_DDOT = 0

CCSDS_OMM_VERS = 2.0
CREATION_DATE  = 
ORIGINATOR     = 

OBJECT_NAME    = CSS (MENGTIAN)
OBJECT_ID      = 2022-143A
CENTER_NAME    = EARTH
REF_FRAME      = TEME
TIME_SYSTEM    = UTC
MEAN_ELEMENT_THEORY = SGP/SGP4

EPOCH          = 2025-12-02T14:12:45.225504
MEAN_MOTION    = 15.58538929
ECCENTRICITY   = .00102296
INCLINATION    = 41.4674
RA_OF_ASC_NODE = 78.2835
ARG_OF_PERICENTER = 314.5610
MEAN_ANOMALY   = 45.4392

EPHEMERIS_TYPE = 0
CLASSIFICATION_TYPE = U
NORAD_CAT_ID   = 54216
ELEMENT_SET_NO = 999
REV_AT_EPOCH   = 15864
BSTAR          = .35376094E-3
MEAN_MOTION_DOT = .27659E-3
MEAN_MOTION_DDOT = 0

CCSDS_OMM_VERS = 2.0
CREATION_DATE  = 
ORIGINATOR     = 

OBJECT_NAME    = SOYUZ-MS 27
OBJECT_ID      = 2025-072A
CENTER_NAME    = EARTH
REF_FRAME      = TEME
TIME_SYSTEM    = UTC
MEAN_ELEMENT_THEORY = SGP/SGP4

EPOCH          = 2025-12-02T02:12:50.598720
MEAN_MOTION    = 15.49237019
ECCENTRICITY   = .00036389
INCLINATION    = 51.6314
RA_OF_ASC_NODE = 195.1903
ARG_OF_PERICENTER = 193.8265
MEAN_ANOMALY   = 166.2625

EPHEMERIS_TYPE = 0
CLASSIFICATION_TYPE = U
NORAD_CAT_ID   = 63520
ELEMENT_SET_NO = 999
REV_AT_EPOCH   = 2020
BSTAR          = .17380747E-3
MEAN_MOTION_DOT = .9217E-4
MEAN_MOTION_DDOT = 0

CCSDS_OMM_VERS = 2.0
CREATION_DATE  = 
ORIGINATOR     = 

OBJECT_NAME    = SHENZHOU-20 (SZ-20)
OBJECT_ID      = 2025-082A
CENTER_NAME    = EARTH
REF_FRAME      = TEME
TIME_SYSTEM    = UTC
MEAN_ELEMENT_THEORY = SGP/SGP4

EPOCH          = 2025-12-02T14:12:45.225504
MEAN_MOTION    = 15.58538929
ECCENTRICITY   = .00102296
INCLINATION    = 41.4674
RA_OF_ASC_NODE = 78.2835
ARG_OF_PERICENTER = 314.5610
MEAN_ANOMALY   = 45.4392

EPHEMERIS_TYPE = 0
CLASSIFICATION_TYPE = U
NORAD_CAT_ID   = 63632
ELEMENT_SET_NO = 999
REV_AT_EPOCH   = 25530
BSTAR          = .35376094E-3
MEAN_MOTION_DOT = .27659E-3
MEAN_MOTION_DDOT = 0

CCSDS_OMM_VERS = 2.0
CREATION_DATE  = 
ORIGINATOR     = 

OBJECT_NAME    = PROGRESS-MS 31
OBJECT_ID      = 2025-146A
CENTER_NAME    = EARTH
REF_FRAME      = TEME
TIME_SYSTEM    = UTC
MEAN_ELEMENT_THEORY = SGP/SGP4

EPOCH          = 2025-12-02T02:12:50.598720
MEAN_MOTION    = 15.49237019
ECCENTRICITY   = .00036389
INCLINATION    = 51.6314
RA_OF_ASC_NODE = 195.1903
ARG_OF_PERICENTER = 193.8265
MEAN_ANOMALY   = 166.2625

EPHEMERIS_TYPE = 0
CLASSIFICATION_TYPE = U
NORAD_CAT_ID   = 64751
ELEMENT_SET_NO = 999
REV_AT_EPOCH   = 675
BSTAR          = .17380747E-3
MEAN_MOTION_DOT = .9217E-4
MEAN_MOTION_DDOT = 0

CCSDS_OMM_VERS = 2.0
CREATION_DATE  = 
ORIGINATOR     = 

OBJECT_NAME    = TIANZHOU-9
OBJECT_ID      = 2025-149A
CENTER_NAME    = EARTH
REF_FRAME      = TEME
TIME_SYSTEM    = UTC
MEAN_ELEMENT_THEORY = SGP/SGP4

EPOCH          = 2025-12-02T14:12:45.225504
MEAN_MOTION    = 15.58538929
ECCENTRICITY   = .00102296
INCLINATION    = 41.4674
RA_OF_ASC_NODE = 78.2835
ARG_OF_PERICENTER = 314.5610
MEAN_ANOMALY   = 45.4392

EPHEMERIS_TYPE = 0
CLASSIFICATION_TYPE = U
NORAD_CAT_ID   = 64786
ELEMENT_SET_NO = 999
REV_AT_EPOCH   = 25530
BSTAR          = .35376094E-3
MEAN_MOTION_DOT = .27659E-3
MEAN_MOTION_DDOT = 0

CCSDS_OMM_VERS = 2.0
CREATION_DATE  = 
ORIGINATOR     = 

OBJECT_NAME    = CREW DRAGON 11
OBJECT_ID      = 2025-166A
CENTER_NAME    = EARTH
REF_FRAME      = TEME
TIME_SYSTEM    = UTC
MEAN_ELEMENT_THEORY = SGP/SGP4

EPOCH          = 2025-12-02T02:12:50.598720
MEAN_MOTION    = 15.49237019
ECCENTRICITY   = .00036389
INCLINATION    = 51.6314
RA_OF_ASC_NODE = 195.1903
ARG_OF_PERICENTER = 193.8265
MEAN_ANOMALY   = 166.2625

EPHEMERIS_TYPE = 0
CLASSIFICATION_TYPE = U
NORAD_CAT_ID   = 65077
ELEMENT_SET_NO = 999
REV_AT_EPOCH   = 214
BSTAR          = .17380747E-3
MEAN_MOTION_DOT = .9217E-4
MEAN_MOTION_DDOT = 0

CCSDS_OMM_VERS = 2.0
CREATION_DATE  = 
ORIGINATOR     = 

OBJECT_NAME    = DRAGON CRS-33
OBJECT_ID      = 2025-186A
CENTER_NAME    = EARTH
REF_FRAME      = TEME
TIME_SYSTEM    = UTC
MEAN_ELEMENT_THEORY = SGP/SGP4

EPOCH          = 2025-12-02T02:12:50.598720
MEAN_MOTION    = 15.49237019
ECCENTRICITY   = .00036389
INCLINATION    = 51.6314
RA_OF_ASC_NODE = 195.1903
ARG_OF_PERICENTER = 193.8265
MEAN_ANOMALY   = 166.2625

EPHEMERIS_TYPE = 0
CLASSIFICATION_TYPE = U
NORAD_CAT_ID   = 65304
ELEMENT_SET_NO = 999
REV_AT_EPOCH   = 11
BSTAR          = .17380747E-3
MEAN_MOTION_DOT = .9217E-4
MEAN_MOTION_DDOT = 0

